2024-092F               
1 59778U 24092F   26068.91303411  .00025723  00000+0  79143-3 0  9992
2 59778  97.6418 198.4543 0008646 142.6506 217.5339 15.33614440100535
STARLINK-34924          
1 65469U 25195M   26068.84359840  .00028207  00000+0  96058-3 0  9994
2 65469  53.1607 257.7223 0001326  75.7000 284.4148 15.30209560 30019
